{
  "type": "FeatureCollection",
  "features": [
    {
      "type": "Feature",
      "properties": {
        "norad_id": 34301,
        "name": "COSMOS 2251 DEB",
        "group": "cosmos-2251-debris",
        "lat": 68.4505066011955,
        "lon": -176.27300794182102,
        "alt_km": 609.5735128787665,
        "timestamp": "2025-12-27T14:26:30.915322+00:00",
        "meta_object_name": "COSMOS 2251 DEB",
        "meta_object_id": "1993-036MX",
        "meta_epoch": "2025-12-26T12:33:41.976000",
        "meta_mean_motion": 14.85255875,
        "meta_eccentricity": 0.0009678,
        "meta_inclination": 74.0061,
        "meta_ra_of_asc_node": 139.2942,
        "meta_arg_of_pericenter": 203.9823,
        "meta_mean_anomaly": 227.9901,
        "meta_ephemeris_type": 0,
        "meta_classification_type": "U",
        "meta_norad_cat_id": 34301,
        "meta_element_set_no": 999,
        "meta_rev_at_epoch": 88605,
        "meta_bstar": 0.0032937,
        "meta_mean_motion_dot": 0.00028381,
        "meta_mean_motion_ddot": 0,
        "tle_line1": "1 34301U 93036MX  25360.52340250  .00028381  00000+0  32937-2 0  9996",
        "tle_line2": "2 34301  74.0061 139.2942 0009678 203.9823 227.9901 14.85255875886055"
      },
      "geometry": {
        "type": "Point",
        "coordinates": [
          -176.27300794182102,
          68.4505066011955
        ]
      }
    },
    {
      "type": "Feature",
      "properties": {
        "norad_id": 34302,
        "name": "COSMOS 2251 DEB",
        "group": "cosmos-2251-debris",
        "lat": -63.363784607032756,
        "lon": -49.1876657296921,
        "alt_km": 738.0063572098034,
        "timestamp": "2025-12-27T14:26:30.915332+00:00",
        "meta_object_name": "COSMOS 2251 DEB",
        "meta_object_id": "1993-036MY",
        "meta_epoch": "2025-12-27T01:53:47.194944",
        "meta_mean_motion": 14.39386292,
        "meta_eccentricity": 0.00795965,
        "meta_inclination": 74.1784,
        "meta_ra_of_asc_node": 97.3407,
        "meta_arg_of_pericenter": 308.6325,
        "meta_mean_anomaly": 112.8331,
        "meta_ephemeris_type": 0,
        "meta_classification_type": "U",
        "meta_norad_cat_id": 34302,
        "meta_element_set_no": 999,
        "meta_rev_at_epoch": 87927,
        "meta_bstar": 0.00071056446,
        "meta_mean_motion_dot": 2.268e-05,
        "meta_mean_motion_ddot": 0,
        "tle_line1": "1 34302U 93036MY  25361.07901846  .00002268  00000+0  71056-3 0  9994",
        "tle_line2": "2 34302  74.1784  97.3407 0079596 308.6325 112.8331 14.39386292879277"
      },
      "geometry": {
        "type": "Point",
        "coordinates": [
          -49.1876657296921,
          -63.363784607032756
        ]
      }
    },
    {
      "type": "Feature",
      "properties": {
        "norad_id": 34303,
        "name": "COSMOS 2251 DEB",
        "group": "cosmos-2251-debris",
        "lat": 14.452841242538831,
        "lon": 75.62635597791703,
        "alt_km": 772.4866822433478,
        "timestamp": "2025-12-27T14:26:30.915343+00:00",
        "meta_object_name": "COSMOS 2251 DEB",
        "meta_object_id": "1993-036MZ",
        "meta_epoch": "2025-12-27T04:28:50.937024",
        "meta_mean_motion": 14.54652932,
        "meta_eccentricity": 0.01356987,
        "meta_inclination": 74.0046,
        "meta_ra_of_asc_node": 260.6529,
        "meta_arg_of_pericenter": 35.4368,
        "meta_mean_anomaly": 115.6006,
        "meta_ephemeris_type": 0,
        "meta_classification_type": "U",
        "meta_norad_cat_id": 34303,
        "meta_element_set_no": 999,
        "meta_rev_at_epoch": 88172,
        "meta_bstar": 0.0018325227,
        "meta_mean_motion_dot": 8.842e-05,
        "meta_mean_motion_ddot": 0,
        "tle_line1": "1 34303U 93036MZ  25361.18670066  .00008842  00000+0  18325-2 0  9997",
        "tle_line2": "2 34303  74.0046 260.6529 0135698  35.4368 115.6006 14.54652932881723"
      },
      "geometry": {
        "type": "Point",
        "coordinates": [
          75.62635597791703,
          14.452841242538831
        ]
      }
    },
    {
      "type": "Feature",
      "properties": {
        "norad_id": 34304,
        "name": "COSMOS 2251 DEB",
        "group": "cosmos-2251-debris",
        "lat": 67.86421892224236,
        "lon": -129.6283660300287,
        "alt_km": 809.455469192616,
        "timestamp": "2025-12-27T14:26:30.915353+00:00",
        "meta_object_name": "COSMOS 2251 DEB",
        "meta_object_id": "1993-036NA",
        "meta_epoch": "2025-12-26T16:48:12.002688",
        "meta_mean_motion": 14.37997771,
        "meta_eccentricity": 0.01289226,
        "meta_inclination": 74.0136,
        "meta_ra_of_asc_node": 96.8421,
        "meta_arg_of_pericenter": 231.8358,
        "meta_mean_anomaly": 249.2914,
        "meta_ephemeris_type": 0,
        "meta_classification_type": "U",
        "meta_norad_cat_id": 34304,
        "meta_element_set_no": 999,
        "meta_rev_at_epoch": 87497,
        "meta_bstar": 0.0017543982,
        "meta_mean_motion_dot": 5.819e-05,
        "meta_mean_motion_ddot": 0,
        "tle_line1": "1 34304U 93036NA  25360.70013892  .00005819  00000+0  17544-2 0  9996",
        "tle_line2": "2 34304  74.0136  96.8421 0128922 231.8358 249.2914 14.37997771874972"
      },
      "geometry": {
        "type": "Point",
        "coordinates": [
          -129.6283660300287,
          67.86421892224236
        ]
      }
    },
    {
      "type": "Feature",
      "properties": {
        "norad_id": 34307,
        "name": "COSMOS 2251 DEB",
        "group": "cosmos-2251-debris",
        "lat": 13.120095587440401,
        "lon": 105.44761352829214,
        "alt_km": 860.6703408122203,
        "timestamp": "2025-12-27T14:26:30.915363+00:00",
        "meta_object_name": "COSMOS 2251 DEB",
        "meta_object_id": "1993-036ND",
        "meta_epoch": "2025-12-27T05:21:34.460064",
        "meta_mean_motion": 13.54344682,
        "meta_eccentricity": 0.0391732,
        "meta_inclination": 74.0541,
        "meta_ra_of_asc_node": 289.8754,
        "meta_arg_of_pericenter": 117.6177,
        "meta_mean_anomaly": 0.875,
        "meta_ephemeris_type": 0,
        "meta_classification_type": "U",
        "meta_norad_cat_id": 34307,
        "meta_element_set_no": 999,
        "meta_rev_at_epoch": 83058,
        "meta_bstar": 0.00084040475,
        "meta_mean_motion_dot": 9.16e-06,
        "meta_mean_motion_ddot": 0,
        "tle_line1": "1 34307U 93036ND  25361.22331551  .00000916  00000+0  84040-3 0  9991",
        "tle_line2": "2 34307  74.0541 289.8754 0391732 117.6177   0.8750 13.54344682830582"
      },
      "geometry": {
        "type": "Point",
        "coordinates": [
          105.44761352829214,
          13.120095587440401
        ]
      }
    },
    {
      "type": "Feature",
      "properties": {
        "norad_id": 34313,
        "name": "COSMOS 2251 DEB",
        "group": "cosmos-2251-debris",
        "lat": -6.364255295334291,
        "lon": 96.03726242619787,
        "alt_km": 508.86488234645185,
        "timestamp": "2025-12-27T14:26:30.915374+00:00",
        "meta_object_name": "COSMOS 2251 DEB",
        "meta_object_id": "1993-036NK",
        "meta_epoch": "2025-12-27T04:09:34.667424",
        "meta_mean_motion": 15.21766557,
        "meta_eccentricity": 0.00122091,
        "meta_inclination": 73.9711,
        "meta_ra_of_asc_node": 275.1034,
        "meta_arg_of_pericenter": 59.5098,
        "meta_mean_anomaly": 300.7304,
        "meta_ephemeris_type": 0,
        "meta_classification_type": "U",
        "meta_norad_cat_id": 34313,
        "meta_element_set_no": 999,
        "meta_rev_at_epoch": 89284,
        "meta_bstar": 0.0053535033,
        "meta_mean_motion_dot": 0.0012372,
        "meta_mean_motion_ddot": 0,
        "tle_line1": "1 34313U 93036NK  25361.17331791  .00123720  00000+0  53535-2 0  9991",
        "tle_line2": "2 34313  73.9711 275.1034 0012209  59.5098 300.7304 15.21766557892849"
      },
      "geometry": {
        "type": "Point",
        "coordinates": [
          96.03726242619787,
          -6.364255295334291
        ]
      }
    },
    {
      "type": "Feature",
      "properties": {
        "norad_id": 34314,
        "name": "COSMOS 2251 DEB",
        "group": "cosmos-2251-debris",
        "lat": 66.97705719596918,
        "lon": 59.41222539499703,
        "alt_km": 816.8109517950325,
        "timestamp": "2025-12-27T14:26:30.915384+00:00",
        "meta_object_name": "COSMOS 2251 DEB",
        "meta_object_id": "1993-036NL",
        "meta_epoch": "2025-12-27T06:14:36.273120",
        "meta_mean_motion": 14.17461679,
        "meta_eccentricity": 0.01036256,
        "meta_inclination": 74.0061,
        "meta_ra_of_asc_node": 282.4708,
        "meta_arg_of_pericenter": 24.7281,
        "meta_mean_anomaly": 138.364,
        "meta_ephemeris_type": 0,
        "meta_classification_type": "U",
        "meta_norad_cat_id": 34314,
        "meta_element_set_no": 999,
        "meta_rev_at_epoch": 86863,
        "meta_bstar": 0.00062467012,
        "meta_mean_motion_dot": 1.31e-05,
        "meta_mean_motion_ddot": 0,
        "tle_line1": "1 34314U 93036NL  25361.26014205  .00001310  00000+0  62467-3 0  9995",
        "tle_line2": "2 34314  74.0061 282.4708 0103625  24.7281 138.3640 14.17461679868639"
      },
      "geometry": {
        "type": "Point",
        "coordinates": [
          59.41222539499703,
          66.97705719596918
        ]
      }
    }
  ]
}